{"_default": { "12": {"norad_id": "43111", "name": "CARTOSAT 2F", "tle1": "1 43111U 18004A   26164.25649588  .00005028  00000-0  24223-3 0  9990", "tle2": "2 43111  97.4793 223.9294 0000433 260.5915  99.5271 15.19186186466735", "object_type": "PAYLOAD", "criticality_score": 9.0, "last_updated": "2026-06-13T17:29:25.184973+00:00", "maneuver_count": 0, "owner": "N/A"}, "44": {"norad_id": "42847", "name": "CORVUS BC1", "tle1": "1 42847U 17042Y   26164.20408901  .00003925  00000-0  26966-3 0  9993", "tle2": "2 42847  97.4084 326.5205 0013162 101.3669 258.9038 15.06439913486498", "object_type": "PAYLOAD", "criticality_score": 9.0, "last_updated": "2026-06-13T17:29:25.184973+00:00", "maneuver_count": 0, "owner": "N/A"}, "45": {"norad_id": "42828", "name": "NORSAT 2", "tle1": "1 42828U 17042D   26164.21418216  .00010455  00000-0  46193-3 0  9993", "tle2": "2 42828  97.4030 337.7185 0010713  69.7029 290.5358 15.21856116487139", "object_type": "PAYLOAD", "criticality_score": 9.0, "last_updated": "2026-06-13T17:29:25.184973+00:00", "maneuver_count": 0, "owner": "N/A"}, "46": {"norad_id": "42767", "name": "CARTOSAT 2E", "tle1": "1 42767U 17036C   26164.29028343  .00005223  00000-0  25118-3 0  9995", "tle2": "2 42767  97.4284 224.1565 0002847 338.9239  21.1878 15.19228378497558", "object_type": "PAYLOAD", "criticality_score": 9.0, "last_updated": "2026-06-13T17:29:25.184973+00:00", "maneuver_count": 0, "owner": "N/A"}, "80": {"norad_id": "43017", "name": "AO-91", "tle1": "1 43017U 17073E   26164.17294973  .00009278  00000-0  40511-3 0  9994", "tle2": "2 43017  97.4713  31.4706 0150189 343.1740  16.4538 15.12658039464781", "object_type": "PAYLOAD", "criticality_score": 9.0, "last_updated": "2026-06-13T17:29:25.184973+00:00", "maneuver_count": 0, "owner": "N/A"}, "81": {"norad_id": "43012", "name": "CZ-4C R/B", "tle1": "1 43012U 17072C   26164.26843094  .00000494  00000-0  10624-3 0  9995", "tle2": "2 43012  98.5791 272.1399 0122826 163.4686 197.0573 14.58778896456065", "object_type": "ROCKET_BODY", "criticality_score": 9.0, "last_updated": "2026-06-13T17:29:25.184973+00:00", "maneuver_count": 0, "owner": "N/A"}, "82": {"norad_id": "42829", "name": "TECHNOSAT", "tle1": "1 42829U 17042E   26164.25990608  .00003897  00000-0  27823-3 0  9999", "tle2": "2 42829  97.4267 322.0673 0018791 106.6312 253.6980 15.04933728486115", "object_type": "PAYLOAD", "criticality_score": 9.0, "last_updated": "2026-06-13T17:29:25.184973+00:00", "maneuver_count": 0, "owner": "N/A"}, "83": {"norad_id": "42794", "name": "DSAT", "tle1": "1 42794U 17036AF  26164.20590122  .00005743  00000-0  26997-3 0  9998", "tle2": "2 42794  97.5552 143.1318 0081998 174.2377 185.9820 15.16998361490250", "object_type": "PAYLOAD", "criticality_score": 9.0, "last_updated": "2026-06-13T17:29:25.184973+00:00", "maneuver_count": 0, "owner": "N/A"}, "107": {"norad_id": "42831", "name": "FLYING LAPTOP", "tle1": "1 42831U 17042G   26164.31934940  .00003810  00000-0  30084-3 0  9994", "tle2": "2 42831  97.4666 320.0011 0019416 134.2856 225.9965 15.01122379485876", "object_type": "PAYLOAD", "criticality_score": 9.0, "last_updated": "2026-06-13T17:29:25.184973+00:00", "maneuver_count": 0, "owner": "N/A"}, "108": {"norad_id": "41948", "name": "CARTOSAT 2D", "tle1": "1 41948U 17008A   26164.27256737  .00004673  00000-0  22453-3 0  9999", "tle2": "2 41948  97.4116 223.6511 0003627 245.9023 114.1832 15.19307219516986", "object_type": "PAYLOAD", "criticality_score": 9.0, "last_updated": "2026-06-13T17:29:25.184973+00:00", "maneuver_count": 0, "owner": "N/A"}, "150": {"norad_id": "42846", "name": "CORVUS BC2", "tle1": "1 42846U 17042X   26164.00973228  .00003649  00000-0  25205-3 0  9997", "tle2": "2 42846  97.4050 325.5224 0014195 123.4942 236.7645 15.06268141486431", "object_type": "PAYLOAD", "criticality_score": 9.0, "last_updated": "2026-06-13T17:29:25.184973+00:00", "maneuver_count": 0, "owner": "N/A"}, "180": {"norad_id": "43016", "name": "MAKERSAT 0", "tle1": "1 43016U 17073D   26163.93448287  .00020158  00000-0  54984-3 0  9994", "tle2": "2 43016  97.4638  46.4211 0105370 288.4199  70.5609 15.31959582465817", "object_type": "PAYLOAD", "criticality_score": 9.0, "last_updated": "2026-06-13T17:29:25.184973+00:00", "maneuver_count": 0, "owner": "N/A"}, "189": {"norad_id": "41914", "name": "JILIN-1-03", "tle1": "1 41914U 17002B   26164.26089157  .00012362  00000-0  29669-3 0  9995", "tle2": "2 41914  97.1941 171.4008 0006301 166.3189 193.8230 15.41485645521251", "object_type": "PAYLOAD", "criticality_score": 9.0, "last_updated": "2026-06-13T17:29:25.184973+00:00", "maneuver_count": 0, "owner": "N/A"}, "191": {"norad_id": "43022", "name": "JILIN-01-04", "tle1": "1 43022U 17074A   26164.25851899  .00014076  00000-0  32820-3 0  9992", "tle2": "2 43022  97.4857 273.7663 0003808 191.5117 168.6043 15.42350835473661", "object_type": "PAYLOAD", "criticality_score": 9.0, "last_updated": "2026-06-13T17:29:25.184973+00:00", "maneuver_count": 0, "owner": "N/A"}, "192": {"norad_id": "43023", "name": "JILIN-01-05", "tle1": "1 43023U 17074B   26164.27216661  .00008447  00000-0  26067-3 0  9998", "tle2": "2 43023  97.4862 270.3733 0004056 230.5707 129.5177 15.33818173473404", "object_type": "PAYLOAD", "criticality_score": 9.0, "last_updated": "2026-06-13T17:29:25.184973+00:00", "maneuver_count": 0, "owner": "N/A"}, "193": {"norad_id": "43024", "name": "JILIN-01-06", "tle1": "1 43024U 17074C   26164.24330017  .00005792  00000-0  18046-3 0  9996", "tle2": "2 43024  97.4791 267.3586 0005433 247.7663 112.3003 15.33651639473230", "object_type": "PAYLOAD", "criticality_score": 9.0, "last_updated": "2026-06-13T17:29:25.184973+00:00", "maneuver_count": 0, "owner": "N/A"}, "217": {"norad_id": "43010", "name": "FENGYUN 3D", "tle1": "1 43010U 17072A   26164.27124529  .00000501  00000-0  25873-3 0  9990", "tle2": "2 43010  99.0117 138.6225 0002610  67.7819 292.3633 14.19740003444437", "object_type": "PAYLOAD", "criticality_score": 9.0, "last_updated": "2026-06-13T17:29:25.184973+00:00", "maneuver_count": 0, "owner": "N/A"}, "221": {"norad_id": "43013", "name": "NOAA 20", "tle1": "1 43013U 17073A   26164.26555522  .00000023  00000-0  31806-4 0  9997", "tle2": "2 43013  98.7773 103.7630 0000303  66.0717 294.0491 14.19511041443914", "object_type": "PAYLOAD", "criticality_score": 9.0, "last_updated": "2026-06-13T17:29:25.184973+00:00", "maneuver_count": 0, "owner": "N/A"}, "232": {"norad_id": "42840", "name": "LEMUR 2 FURIAUS", "tle1": "1 42840U 17042R   26164.22253227  .00017287  00000-0  59421-3 0  9995", "tle2": "2 42840  97.3763 342.8308 0008373  81.1455 279.0734 15.30130049487601", "object_type": "PAYLOAD", "criticality_score": 9.0, "last_updated": "2026-06-13T17:29:25.184973+00:00", "maneuver_count": 0, "owner": "N/A"}, "239": {"norad_id": "42835", "name": "WNISAT 1R", "tle1": "1 42835U 17042L   26164.16070704  .00002299  00000-0  18085-3 0  9997", "tle2": "2 42835  97.4828 320.4270 0010668 160.6346 199.5286 15.01746528485902", "object_type": "PAYLOAD", "criticality_score": 9.0, "last_updated": "2026-06-13T17:29:25.184973+00:00", "maneuver_count": 0, "owner": "N/A"}, "293": {"norad_id": "43005", "name": "MOHAMMED VI-A", "tle1": "1 43005U 17070A   26164.28183080  .00000134  00000-0  26106-4 0  9993", "tle2": "2 43005  97.9561 236.6665 0001414  72.2380 287.8984 14.77062642463409", "object_type": "PAYLOAD", "criticality_score": 9.0, "last_updated": "2026-06-13T17:29:25.184973+00:00", "maneuver_count": 0, "owner": "N/A"}, "348": {"norad_id": "43072", "name": "IRIDIUM 116", "tle1": "1 43072U 17083C   26164.16841591  .00000065  00000-0  16115-4 0  9998", "tle2": "2 43072  86.3960 323.6819 0001915  96.8694 263.2720 14.34217888443593", "object_type": "PAYLOAD", "criticality_score": 9.0, "last_updated": "2026-06-13T17:29:25.184973+00:00", "maneuver_count": 0, "owner": "N/A"}, "349": {"norad_id": "42803", "name": "IRIDIUM 113", "tle1": "1 42803U 17039A   26164.19378729  .00000037  00000-0  60618-5 0  9998", "tle2": "2 42803  86.3967 323.8484 0002298  89.3113 270.8346 14.34217715470619", "object_type": "PAYLOAD", "criticality_score": 9.0, "last_updated": "2026-06-13T17:29:25.184973+00:00", "maneuver_count": 0, "owner": "N/A"}, "350": {"norad_id": "43073", "name": "IRIDIUM 130", "tle1": "1 43073U 17083D   26163.92739723 -.00000064  00000-0 -30029-4 0  9996", "tle2": "2 43073  86.3966 324.0577 0001835  89.9601 270.1805 14.34217074443507", "object_type": "PAYLOAD", "criticality_score": 9.0, "last_updated": "2026-06-13T17:29:25.184973+00:00", "maneuver_count": 0, "owner": "N/A"}, "419": {"norad_id": "43099", "name": "SUPERVIEW-1 03", "tle1": "1 43099U 18002A   26164.26507567  .00019024  00000-0  47368-3 0  9990", "tle2": "2 43099  97.3140 249.1085 0046936 193.5936 166.4050 15.39133891467769", "object_type": "PAYLOAD", "criticality_score": 9.0, "last_updated": "2026-06-13T17:29:25.184973+00:00", "maneuver_count": 0, "owner": "N/A"}, "432": {"norad_id": "41898", "name": "TANSAT", "tle1": "1 41898U 16081A   26164.27342206  .00000635  00000-0  14264-3 0  9995", "tle2": "2 41898  98.5361 164.4153 0019839 324.9298  35.0594 14.59948956504055", "object_type": "PAYLOAD", "criticality_score": 9.0, "last_updated": "2026-06-13T17:29:25.184973+00:00", "maneuver_count": 0, "owner": "N/A"}, "437": {"norad_id": "42837", "name": "LEMUR 2 GREENBERG", "tle1": "1 42837U 17042N   26164.23153140  .00016323  00000-0  54276-3 0  9998", "tle2": "2 42837  97.3811 344.8753 0008885  27.9585 332.2132 15.31213616487783", "object_type": "PAYLOAD", "criticality_score": 9.0, "last_updated": "2026-06-13T17:29:25.184973+00:00", "maneuver_count": 0, "owner": "N/A"}, "499": {"norad_id": "43146", "name": "LKW-3", "tle1": "1 43146U 18006A   26164.33862505  .00010029  00000-0  29613-3 0  9990", "tle2": "2 43146  97.6599 324.7619 0002333 341.6068  18.5090 15.35176237468120", "object_type": "PAYLOAD", "criticality_score": 9.0, "last_updated": "2026-06-13T17:29:25.184973+00:00", "maneuver_count": 0, "owner": "N/A"}, "506": {"norad_id": "43080", "name": "LKW-2", "tle1": "1 43080U 17084A   26164.29160550  .00007405  00000-0  28806-3 0  9995", "tle2": "2 43080  97.1200 204.2693 0000681 179.2692 180.8548 15.26293014471091", "object_type": "PAYLOAD", "criticality_score": 9.0, "last_updated": "2026-06-13T17:29:25.184973+00:00", "maneuver_count": 0, "owner": "N/A"}, "527": {"norad_id": "42954", "name": "VRSS-2", "tle1": "1 42954U 17060A   26164.33649013  .00001145  00000-0  15315-3 0  9995", "tle2": "2 42954  97.6519 202.2368 0018511 110.3929 249.9274 14.81189115467886", "object_type": "PAYLOAD", "criticality_score": 9.0, "last_updated": "2026-06-13T17:29:25.184973+00:00", "maneuver_count": 0, "owner": "N/A"}}}