OBJECT_NAME,OBJECT_ID,EPOCH,MEAN_MOTION,ECCENTRICITY,INCLINATION,RA_OF_ASC_NODE,ARG_OF_PERICENTER,MEAN_ANOMALY,EPHEMERIS_TYPE,CLASSIFICATION_TYPE,NORAD_CAT_ID,ELEMENT_SET_NO,REV_AT_EPOCH,BSTAR,MEAN_MOTION_DOT,MEAN_MOTION_DDOT
TANSAT,2016-081A,2026-06-13T06:33:43.665984,14.59948956,.00198393,98.5361,164.4153,324.9298,35.0594,0,U,41898,999,50405,.14264046E-3,.635E-5,0
JILIN-1 03,2017-002B,2026-06-13T06:15:41.031648,15.41485645,.00063006,97.1941,171.4008,166.3189,193.8230,0,U,41914,999,52125,.29668625E-3,.12362E-3,0
CARTOSAT-2D,2017-008A,2026-06-13T06:32:29.820768,15.19307219,.00036271,97.4116,223.6511,245.9023,114.1832,0,U,41948,999,51698,.22453025E-3,.4673E-4,0
CARTOSAT-2E,2017-036C,2026-06-13T06:58:00.488352,15.19228378,.00028469,97.4284,224.1565,338.9239,21.1878,0,U,42767,999,49755,.25117893E-3,.5223E-4,0
D-SAT,2017-036AF,2026-06-13T04:56:29.865408,15.16998361,.00819979,97.5552,143.1318,174.2377,185.9820,0,U,42794,999,49025,.26996526E-3,.5743E-4,0
IRIDIUM 113,2017-039A,2026-06-13T04:39:03.221856,14.34217715,.00022977,86.3967,323.8484,89.3113,270.8346,0,U,42803,999,47061,.6061777E-5,.37E-6,0
NORSAT 2,2017-042D,2026-06-13T05:08:25.338624,15.21856116,.0010713,97.4030,337.7185,69.7029,290.5358,0,U,42828,999,48713,.46192944E-3,.10455E-3,0
TECHNOSAT,2017-042E,2026-06-13T06:14:15.885312,15.04933728,.00187913,97.4267,322.0673,106.6312,253.6980,0,U,42829,999,48611,.27822658E-3,.3897E-4,0
FLYING LAPTOP,2017-042G,2026-06-13T07:39:51.788160,15.01122379,.00194162,97.4666,320.0011,134.2856,225.9965,0,U,42831,999,48587,.3008443E-3,.381E-4,0
WNISAT 1R,2017-042L,2026-06-13T03:51:25.088256,15.01746528,.00106678,97.4828,320.4270,160.6346,199.5286,0,U,42835,999,48590,.18085267E-3,.2299E-4,0
LEMUR-2-GREENBERG,2017-042N,2026-06-13T05:33:24.312960,15.31213616,.00088854,97.3811,344.8753,27.9585,332.2132,0,U,42837,999,48778,.54275782E-3,.16323E-3,0
LEMUR-2-FURIAUS,2017-042R,2026-06-13T05:20:26.788128,15.30130049,.00083727,97.3763,342.8308,81.1455,279.0734,0,U,42840,999,48760,.59420981E-3,.17287E-3,0
CORVUS BC2,2017-042X,2026-06-13T00:14:00.868992,15.06268141,.00141949,97.4050,325.5224,123.4942,236.7645,0,U,42846,999,48643,.25204671E-3,.3649E-4,0
CORVUS BC1,2017-042Y,2026-06-13T04:53:53.290464,15.06439913,.0013162,97.4084,326.5205,101.3669,258.9038,0,U,42847,999,48649,.26966273E-3,.3925E-4,0
VRSS-2,2017-060A,2026-06-13T08:04:32.747232,14.81189115,.00185106,97.6519,202.2368,110.3929,249.9274,0,U,42954,999,46788,.15314602E-3,.1145E-4,0
MOHAMMED VI-A,2017-070A,2026-06-13T06:45:50.181120,14.77062642,.00014136,97.9561,236.6665,72.2380,287.8984,0,U,43005,999,46340,.26105703E-4,.134E-5,0
FENGYUN 3D,2017-072A,2026-06-13T06:30:35.593056,14.19740003,.00026096,99.0117,138.6225,67.7819,292.3633,0,U,43010,999,44443,.25873184E-3,.501E-5,0
CZ-4C R/B,2017-072C,2026-06-13T06:26:32.433216,14.58778896,.01228257,98.5791,272.1399,163.4686,197.0573,0,U,43012,999,45606,.10623949E-3,.494E-5,0
NOAA 20 (JPSS-1),2017-073A,2026-06-13T06:22:23.971008,14.19511041,.00003026,98.7773,103.7630,66.0717,294.0491,0,U,43013,999,44391,.31806299E-4,.23E-6,0
MAKERSAT 0,2017-073D,2026-06-12T22:25:39.319968,15.31959582,.01053705,97.4638,46.4211,288.4199,70.5609,0,U,43016,999,46581,.54983891E-3,.20158E-3,0
RADFXSAT (FOX-1B),2017-073E,2026-06-13T04:09:02.856672,15.12658039,.01501889,97.4713,31.4706,343.1740,16.4538,0,U,43017,999,46478,.40510956E-3,.9278E-4,0
JILIN-1 04,2017-074A,2026-06-13T06:12:16.040736,15.42350835,.00038076,97.4857,273.7663,191.5117,168.6043,0,U,43022,999,47366,.32820177E-3,.14076E-3,0
JILIN-1 05,2017-074B,2026-06-13T06:31:55.195104,15.33818173,.00040557,97.4862,270.3733,230.5707,129.5177,0,U,43023,999,47340,.2606739E-3,.8447E-4,0
JILIN-1 06,2017-074C,2026-06-13T05:50:21.134688,15.33651639,.0005433,97.4791,267.3586,247.7663,112.3003,0,U,43024,999,47323,.18045813E-3,.5792E-4,0
IRIDIUM 116,2017-083C,2026-06-13T04:02:31.134624,14.34217888,.00019146,86.3960,323.6819,96.8694,263.2720,0,U,43072,999,44359,.1611493E-4,.65E-6,0
IRIDIUM 130,2017-083D,2026-06-12T22:15:27.120672,14.34217074,.00018351,86.3966,324.0577,89.9601,270.1805,0,U,43073,999,44350,-.3002854E-4,-.64E-6,0
LKW-2,2017-084A,2026-06-13T06:59:54.715200,15.26293014,.00006813,97.1200,204.2693,179.2692,180.8548,0,U,43080,999,47109,.28805878E-3,.7405E-4,0
SUPERVIEW-1 03,2018-002A,2026-06-13T06:21:42.537888,15.39133891,.00469355,97.3140,249.1085,193.5936,166.4050,0,U,43099,999,46776,.47367955E-3,.19024E-3,0
CARTOSAT-2F,2018-004A,2026-06-13T06:09:21.244032,15.19186186,.00004326,97.4793,223.9294,260.5915,99.5271,0,U,43111,999,46673,.2422274E-3,.5028E-4,0
LKW-3,2018-006A,2026-06-13T08:07:37.204320,15.35176237,.0002333,97.6599,324.7619,341.6068,18.5090,0,U,43146,999,46812,.29613358E-3,.10029E-3,0
